ONEWEB-0630             
1 56072U 23043AC  25360.21987563  .00000028  00000+0  40044-4 0  9994
2 56072  87.9005 293.7178 0001869  67.3317 292.8011 13.15546873133686
ONEWEB-0632             
1 56073U 23043AD  25360.21513330  .00000082  00000+0  18436-3 0  9991
2 56073  87.9011 293.7364 0001927  76.4965 283.6380 13.15549077133682
ONEWEB-0633             
1 56074U 23043AE  25360.20879088  .00000106  00000+0  24844-3 0  9993
2 56074  87.9007 293.7008 0001719  61.1139 299.0164 13.15547607133662
ONEWEB-0634             
1 56075U 23043AF  25360.27058567  .00000414  00000+0  10664-2 0  9998
2 56075  87.9007 293.7394 0001443  77.3804 282.7487 13.15546916133662
ONEWEB-0635             
1 56076U 23043AG  25360.18978061  .00000230  00000+0  57610-3 0  9998
2 56076  87.9006 293.7087 0002045  79.8200 280.3161 13.15546519133681
ONEWEB-0636             
1 56077U 23043AH  25359.87763008  .00000109  00000+0  25568-3 0  9998
2 56077  87.8999 293.7886 0001991  79.5981 280.5373 13.15547801133627
ONEWEB-0637             
1 56078U 23043AJ  25359.87128926  .00000156  00000+0  38057-3 0  9992
2 56078  87.9000 293.8071 0001773  86.4278 273.7055 13.15548763133644
ONEWEB-0647             
1 56079U 23043AK  25360.24682163  .00000092  00000+0  21027-3 0  9992
2 56079  87.9003 293.7448 0001951  75.2367 284.8980 13.15546796133686
ONEWEB-0651             
1 56080U 23043AL  25360.24206970  .00000076  00000+0  16718-3 0  9995
2 56080  87.9001 293.7393 0001979  83.9246 276.2109 13.15546668134886
ONEWEB-0718             
1 56081U 23043AM  25360.23731414 -.00000082  00000+0 -25068-3 0  9998
2 56081  87.9004 293.7206 0001172  76.8483 283.2778 13.15550131133690
ONEWEB-0561             
1 56710U 23068A   25360.24502737  .00000108  00000+0  23385-3 0  9996
2 56710  87.9211 308.9420 0002277  78.9097 281.2293 13.20770325126672
ONEWEB-0668             
1 56711U 23068B   25360.23184025  .00000027  00000+0  37332-4 0  9990
2 56711  87.9059 263.1951 0001216  89.3729 270.7542 13.16592303129029
ONEWEB-0676             
1 56712U 23068C   25360.23977010  .00000065  00000+0  13713-3 0  9993
2 56712  87.9045 263.2145 0001876  79.8259 280.3083 13.16596306128949
ONEWEB-0677             
1 56713U 23068D   25359.93095029 -.00000056  00000+0 -17001-3 0  9996
2 56713  87.9217 308.9894 0001874  83.5923 276.5424 13.20771935126938
ONEWEB-0678             
1 56714U 23068E   25360.28168309  .00000198  00000+0  49198-3 0  9996
2 56714  87.9016 293.6884 0001969  68.7867 291.3474 13.15547084126550
ONEWEB-0679             
1 56715U 23068F   25360.19859054  .00000069  00000+0  14595-3 0  9991
2 56715  87.9043 263.2058 0001672  94.5205 265.6117 13.16592769128967
ONEWEB-0680             
1 56716U 23068G   25360.20608342  .00000105  00000+0  22212-3 0  9992
2 56716  87.9233 278.4639 0001367  95.4321 264.6969 13.21827328128245
