[{"OBJECT_NAME":"ONEWEB-0630","OBJECT_ID":"2023-043AC","EPOCH":"2025-12-26T05:16:37.254432","MEAN_MOTION":13.15546873,"ECCENTRICITY":0.00018692,"INCLINATION":87.9005,"RA_OF_ASC_NODE":293.7178,"ARG_OF_PERICENTER":67.3317,"MEAN_ANOMALY":292.8011,"EPHEMERIS_TYPE":0,"CLASSIFICATION_TYPE":"U","NORAD_CAT_ID":56072,"ELEMENT_SET_NO":999,"REV_AT_EPOCH":13368,"BSTAR":4.0044373e-5,"MEAN_MOTION_DOT":2.8e-7,"MEAN_MOTION_DDOT":0},{"OBJECT_NAME":"ONEWEB-0632","OBJECT_ID":"2023-043AD","EPOCH":"2025-12-26T05:09:47.517120","MEAN_MOTION":13.15549077,"ECCENTRICITY":0.00019278,"INCLINATION":87.9011,"RA_OF_ASC_NODE":293.7364,"ARG_OF_PERICENTER":76.4965,"MEAN_ANOMALY":283.638,"EPHEMERIS_TYPE":0,"CLASSIFICATION_TYPE":"U","NORAD_CAT_ID":56073,"ELEMENT_SET_NO":999,"REV_AT_EPOCH":13368,"BSTAR":0.0001843578,"MEAN_MOTION_DOT":8.2e-7,"MEAN_MOTION_DDOT":0},{"OBJECT_NAME":"ONEWEB-0633","OBJECT_ID":"2023-043AE","EPOCH":"2025-12-26T05:00:39.532032","MEAN_MOTION":13.15547607,"ECCENTRICITY":0.00017191,"INCLINATION":87.9007,"RA_OF_ASC_NODE":293.7008,"ARG_OF_PERICENTER":61.1139,"MEAN_ANOMALY":299.0164,"EPHEMERIS_TYPE":0,"CLASSIFICATION_TYPE":"U","NORAD_CAT_ID":56074,"ELEMENT_SET_NO":999,"REV_AT_EPOCH":13366,"BSTAR":0.00024844085,"MEAN_MOTION_DOT":1.06e-6,"MEAN_MOTION_DDOT":0},{"OBJECT_NAME":"ONEWEB-0634","OBJECT_ID":"2023-043AF","EPOCH":"2025-12-26T06:29:38.601888","MEAN_MOTION":13.15546916,"ECCENTRICITY":0.00014436,"INCLINATION":87.9007,"RA_OF_ASC_NODE":293.7394,"ARG_OF_PERICENTER":77.3804,"MEAN_ANOMALY":282.7487,"EPHEMERIS_TYPE":0,"CLASSIFICATION_TYPE":"U","NORAD_CAT_ID":56075,"ELEMENT_SET_NO":999,"REV_AT_EPOCH":13366,"BSTAR":0.0010663854,"MEAN_MOTION_DOT":4.14e-6,"MEAN_MOTION_DDOT":0},{"OBJECT_NAME":"ONEWEB-0635","OBJECT_ID":"2023-043AG","EPOCH":"2025-12-26T04:33:17.044704","MEAN_MOTION":13.15546519,"ECCENTRICITY":0.0002045,"INCLINATION":87.9006,"RA_OF_ASC_NODE":293.7087,"ARG_OF_PERICENTER":79.82,"MEAN_ANOMALY":280.3161,"EPHEMERIS_TYPE":0,"CLASSIFICATION_TYPE":"U","NORAD_CAT_ID":56076,"ELEMENT_SET_NO":999,"REV_AT_EPOCH":13368,"BSTAR":0.00057610201,"MEAN_MOTION_DOT":2.3e-6,"MEAN_MOTION_DDOT":0},{"OBJECT_NAME":"ONEWEB-0636","OBJECT_ID":"2023-043AH","EPOCH":"2025-12-25T21:03:47.238912","MEAN_MOTION":13.15547801,"ECCENTRICITY":0.0001991,"INCLINATION":87.8999,"RA_OF_ASC_NODE":293.7886,"ARG_OF_PERICENTER":79.5981,"MEAN_ANOMALY":280.5373,"EPHEMERIS_TYPE":0,"CLASSIFICATION_TYPE":"U","NORAD_CAT_ID":56077,"ELEMENT_SET_NO":999,"REV_AT_EPOCH":13362,"BSTAR":0.00025568,"MEAN_MOTION_DOT":1.09e-6,"MEAN_MOTION_DDOT":0},{"OBJECT_NAME":"ONEWEB-0637","OBJECT_ID":"2023-043AJ","EPOCH":"2025-12-25T20:54:39.392064","MEAN_MOTION":13.15548763,"ECCENTRICITY":0.0001773,"INCLINATION":87.9,"RA_OF_ASC_NODE":293.8071,"ARG_OF_PERICENTER":86.4278,"MEAN_ANOMALY":273.7055,"EPHEMERIS_TYPE":0,"CLASSIFICATION_TYPE":"U","NORAD_CAT_ID":56078,"ELEMENT_SET_NO":999,"REV_AT_EPOCH":13364,"BSTAR":0.00038057,"MEAN_MOTION_DOT":1.56e-6,"MEAN_MOTION_DDOT":0},{"OBJECT_NAME":"ONEWEB-0647","OBJECT_ID":"2023-043AK","EPOCH":"2025-12-26T05:55:25.388832","MEAN_MOTION":13.15546796,"ECCENTRICITY":0.00019511,"INCLINATION":87.9003,"RA_OF_ASC_NODE":293.7448,"ARG_OF_PERICENTER":75.2367,"MEAN_ANOMALY":284.898,"EPHEMERIS_TYPE":0,"CLASSIFICATION_TYPE":"U","NORAD_CAT_ID":56079,"ELEMENT_SET_NO":999,"REV_AT_EPOCH":13368,"BSTAR":0.00021026549,"MEAN_MOTION_DOT":9.2e-7,"MEAN_MOTION_DDOT":0},{"OBJECT_NAME":"ONEWEB-0651","OBJECT_ID":"2023-043AL","EPOCH":"2025-12-26T05:48:34.822080","MEAN_MOTION":13.15546668,"ECCENTRICITY":0.00019794,"INCLINATION":87.9001,"RA_OF_ASC_NODE":293.7393,"ARG_OF_PERICENTER":83.9246,"MEAN_ANOMALY":276.2109,"EPHEMERIS_TYPE":0,"CLASSIFICATION_TYPE":"U","NORAD_CAT_ID":56080,"ELEMENT_SET_NO":999,"REV_AT_EPOCH":13488,"BSTAR":0.00016717698,"MEAN_MOTION_DOT":7.6e-7,"MEAN_MOTION_DDOT":0},{"OBJECT_NAME":"ONEWEB-0718","OBJECT_ID":"2023-043AM","EPOCH":"2025-12-26T05:41:43.941696","MEAN_MOTION":13.15550131,"ECCENTRICITY":0.00011728,"INCLINATION":87.9004,"RA_OF_ASC_NODE":293.7206,"ARG_OF_PERICENTER":76.8483,"MEAN_ANOMALY":283.2778,"EPHEMERIS_TYPE":0,"CLASSIFICATION_TYPE":"U","NORAD_CAT_ID":56081,"ELEMENT_SET_NO":999,"REV_AT_EPOCH":13369,"BSTAR":-0.00025068171,"MEAN_MOTION_DOT":-8.2e-7,"MEAN_MOTION_DDOT":0},{"OBJECT_NAME":"ONEWEB-0561","OBJECT_ID":"2023-068A","EPOCH":"2025-12-26T05:52:50.364768","MEAN_MOTION":13.20770325,"ECCENTRICITY":0.00022773,"INCLINATION":87.9211,"RA_OF_ASC_NODE":308.942,"ARG_OF_PERICENTER":78.9097,"MEAN_ANOMALY":281.2293,"EPHEMERIS_TYPE":0,"CLASSIFICATION_TYPE":"U","NORAD_CAT_ID":56710,"ELEMENT_SET_NO":999,"REV_AT_EPOCH":12667,"BSTAR":0.00023385168,"MEAN_MOTION_DOT":1.08e-6,"MEAN_MOTION_DDOT":0},{"OBJECT_NAME":"ONEWEB-0668","OBJECT_ID":"2023-068B","EPOCH":"2025-12-26T05:33:50.997600","MEAN_MOTION":13.16592303,"ECCENTRICITY":0.00012162,"INCLINATION":87.9059,"RA_OF_ASC_NODE":263.1951,"ARG_OF_PERICENTER":89.3729,"MEAN_ANOMALY":270.7542,"EPHEMERIS_TYPE":0,"CLASSIFICATION_TYPE":"U","NORAD_CAT_ID":56711,"ELEMENT_SET_NO":999,"REV_AT_EPOCH":12902,"BSTAR":3.7331916e-5,"MEAN_MOTION_DOT":2.7e-7,"MEAN_MOTION_DDOT":0},{"OBJECT_NAME":"ONEWEB-0676","OBJECT_ID":"2023-068C","EPOCH":"2025-12-26T05:45:16.136640","MEAN_MOTION":13.16596306,"ECCENTRICITY":0.00018761,"INCLINATION":87.9045,"RA_OF_ASC_NODE":263.2145,"ARG_OF_PERICENTER":79.8259,"MEAN_ANOMALY":280.3083,"EPHEMERIS_TYPE":0,"CLASSIFICATION_TYPE":"U","NORAD_CAT_ID":56712,"ELEMENT_SET_NO":999,"REV_AT_EPOCH":12894,"BSTAR":0.00013713293,"MEAN_MOTION_DOT":6.5e-7,"MEAN_MOTION_DDOT":0},{"OBJECT_NAME":"ONEWEB-0677","OBJECT_ID":"2023-068D","EPOCH":"2025-12-25T22:20:34.105056","MEAN_MOTION":13.20771935,"ECCENTRICITY":0.0001874,"INCLINATION":87.9217,"RA_OF_ASC_NODE":308.9894,"ARG_OF_PERICENTER":83.5923,"MEAN_ANOMALY":276.5424,"EPHEMERIS_TYPE":0,"CLASSIFICATION_TYPE":"U","NORAD_CAT_ID":56713,"ELEMENT_SET_NO":999,"REV_AT_EPOCH":12693,"BSTAR":-0.00017001,"MEAN_MOTION_DOT":-5.6e-7,"MEAN_MOTION_DDOT":0},{"OBJECT_NAME":"ONEWEB-0678","OBJECT_ID":"2023-068E","EPOCH":"2025-12-26T06:45:37.418976","MEAN_MOTION":13.15547084,"ECCENTRICITY":0.00019696,"INCLINATION":87.9016,"RA_OF_ASC_NODE":293.6884,"ARG_OF_PERICENTER":68.7867,"MEAN_ANOMALY":291.3474,"EPHEMERIS_TYPE":0,"CLASSIFICATION_TYPE":"U","NORAD_CAT_ID":56714,"ELEMENT_SET_NO":999,"REV_AT_EPOCH":12655,"BSTAR":0.00049197976,"MEAN_MOTION_DOT":1.98e-6,"MEAN_MOTION_DDOT":0},{"OBJECT_NAME":"ONEWEB-0679","OBJECT_ID":"2023-068F","EPOCH":"2025-12-26T04:45:58.222656","MEAN_MOTION":13.16592769,"ECCENTRICITY":0.00016722,"INCLINATION":87.9043,"RA_OF_ASC_NODE":263.2058,"ARG_OF_PERICENTER":94.5205,"MEAN_ANOMALY":265.6117,"EPHEMERIS_TYPE":0,"CLASSIFICATION_TYPE":"U","NORAD_CAT_ID":56715,"ELEMENT_SET_NO":999,"REV_AT_EPOCH":12896,"BSTAR":0.00014595093,"MEAN_MOTION_DOT":6.9e-7,"MEAN_MOTION_DDOT":0},{"OBJECT_NAME":"ONEWEB-0680","OBJECT_ID":"2023-068G","EPOCH":"2025-12-26T04:56:45.607488","MEAN_MOTION":13.21827328,"ECCENTRICITY":0.00013678,"INCLINATION":87.9233,"RA_OF_ASC_NODE":278.4639,"ARG_OF_PERICENTER":95.4321,"MEAN_ANOMALY":264.6969,"EPHEMERIS_TYPE":0,"CLASSIFICATION_TYPE":"U","NORAD_CAT_ID":56716,"ELEMENT_SET_NO":999,"REV_AT_EPOCH":12824,"BSTAR":0.00022212429,"MEAN_MOTION_DOT":1.05e-6,"MEAN_MOTION_DDOT":0}]
